{"type": "FeatureCollection", "features": [ {"type": "Feature", "properties": {"norad_id": 31555, "name": "FENGYUN 1C DEB", "group": "fengyun-1c-debris", "lat": 80.66941692506963, "lon": -139.19329600960717, "alt_km": 783.9099988763373, "timestamp": "2025-12-10T05:46:14.106163+00:00", "meta": {"OBJECT_NAME": "FENGYUN 1C DEB", "OBJECT_ID": "1999-025BYW", "EPOCH": "2025-12-07T02:31:39.558144", "MEAN_MOTION": 14.44158663, "ECCENTRICITY": 0.01545207, "INCLINATION": 99.1039, "RA_OF_ASC_NODE": 294.8535, "ARG_OF_PERICENTER": 213.2009, "MEAN_ANOMALY": 145.9411, "EPHEMERIS_TYPE": 0, "CLASSIFICATION_TYPE": "U", "NORAD_CAT_ID": 31555, "ELEMENT_SET_NO": 999, "REV_AT_EPOCH": 96482, "BSTAR": 0.0022170192, "MEAN_MOTION_DOT": 8.749e-05, "MEAN_MOTION_DDOT": 0}, "tle": {"line1": "1 31555U 99025BYW 25341.10531896  .00008749  00000+0  22170-2 0  9993", "line2": "2 31555  99.1039 294.8535 0154520 213.2009 145.9411 14.44158663964828"}}, "geometry": {"type": "Point", "coordinates": [-139.19329600960717, 80.66941692506963]}}, {"type": "Feature", "properties": {"norad_id": 31558, "name": "FENGYUN 1C DEB", "group": "fengyun-1c-debris", "lat": 61.64597728223792, "lon": -137.0988116173134, "alt_km": 890.5731723628451, "timestamp": "2025-12-10T05:46:14.106174+00:00", "meta": {"OBJECT_NAME": "FENGYUN 1C DEB", "OBJECT_ID": "1999-025BYZ", "EPOCH": "2025-12-09T11:57:25.294752", "MEAN_MOTION": 14.3868918, "ECCENTRICITY": 0.02107955, "INCLINATION": 98.7901, "RA_OF_ASC_NODE": 238.8023, "ARG_OF_PERICENTER": 271.9358, "MEAN_ANOMALY": 267.9169, "EPHEMERIS_TYPE": 0, "CLASSIFICATION_TYPE": "U", "NORAD_CAT_ID": 31558, "ELEMENT_SET_NO": 999, "REV_AT_EPOCH": 97388, "BSTAR": 0.00055098156, "MEAN_MOTION_DOT": 2.133e-05, "MEAN_MOTION_DDOT": 0}, "tle": {"line1": "1 31558U 99025BYZ 25343.49820943  .00002133  00000+0  55098-3 0  9991", "line2": "2 31558  98.7901 238.8023 0210795 271.9358 267.9169 14.38689180973886"}}, "geometry": {"type": "Point", "coordinates": [-137.0988116173134, 61.64597728223792]}}, {"type": "Feature", "properties": {"norad_id": 31559, "name": "FENGYUN 1C DEB", "group": "fengyun-1c-debris", "lat": 61.34332578428212, "lon": -78.4355216229657, "alt_km": 704.5619555639787, "timestamp": "2025-12-10T05:46:14.106184+00:00", "meta": {"OBJECT_NAME": "FENGYUN 1C DEB", "OBJECT_ID": "1999-025BZA", "EPOCH": "2025-12-09T15:30:40.104000", "MEAN_MOTION": 14.63494934, "ECCENTRICITY": 0.0054127, "INCLINATION": 98.8675, "RA_OF_ASC_NODE": 297.5247, "ARG_OF_PERICENTER": 203.3747, "MEAN_ANOMALY": 331.2434, "EPHEMERIS_TYPE": 0, "CLASSIFICATION_TYPE": "U", "NORAD_CAT_ID": 31559, "ELEMENT_SET_NO": 999, "REV_AT_EPOCH": 97511, "BSTAR": 0.0022605, "MEAN_MOTION_DOT": 0.00011926, "MEAN_MOTION_DDOT": 0}, "tle": {"line1": "1 31559U 99025BZA 25343.64629750  .00011926  00000+0  22605-2 0  9999", "line2": "2 31559  98.8675 297.5247 0054127 203.3747 331.2434 14.63494934975119"}}, "geometry": {"type": "Point", "coordinates": [-78.4355216229657, 61.34332578428212]}}, {"type": "Feature", "properties": {"norad_id": 31560, "name": "FENGYUN 1C DEB", "group": "fengyun-1c-debris", "lat": 33.89369130823957, "lon": 14.59376292679168, "alt_km": 801.020142203628, "timestamp": "2025-12-10T05:46:14.106198+00:00", "meta": {"OBJECT_NAME": "FENGYUN 1C DEB", "OBJECT_ID": "1999-025BZB", "EPOCH": "2025-12-09T09:20:09.111840", "MEAN_MOTION": 14.21220803, "ECCENTRICITY": 0.01200673, "INCLINATION": 98.5895, "RA_OF_ASC_NODE": 19.5934, "ARG_OF_PERICENTER": 318.2352, "MEAN_ANOMALY": 40.9708, "EPHEMERIS_TYPE": 0, "CLASSIFICATION_TYPE": "U", "NORAD_CAT_ID": 31560, "ELEMENT_SET_NO": 999, "REV_AT_EPOCH": 96571, "BSTAR": 0.00010240322, "MEAN_MOTION_DOT": 1.96e-06, "MEAN_MOTION_DDOT": 0}, "tle": {"line1": "1 31560U 99025BZB 25343.38899435  .00000196  00000+0  10240-3 0  9991", "line2": "2 31560  98.5895  19.5934 0120067 318.2352  40.9708 14.21220803965711"}}, "geometry": {"type": "Point", "coordinates": [14.59376292679168, 33.89369130823957]}}, {"type": "Feature", "properties": {"norad_id": 31561, "name": "FENGYUN 1C DEB", "group": "fengyun-1c-debris", "lat": -25.94023635655966, "lon": 156.1097708283055, "alt_km": 850.4871183864989, "timestamp": "2025-12-10T05:46:14.106209+00:00", "meta": {"OBJECT_NAME": "FENGYUN 1C DEB", "OBJECT_ID": "1999-025BZC", "EPOCH": "2025-12-09T06:36:25.329024", "MEAN_MOTION": 14.02762564, "ECCENTRICITY": 0.005636, "INCLINATION": 98.7171, "RA_OF_ASC_NODE": 339.4659, "ARG_OF_PERICENTER": 192.6729, "MEAN_ANOMALY": 182.0582, "EPHEMERIS_TYPE": 0, "CLASSIFICATION_TYPE": "U", "NORAD_CAT_ID": 31561, "ELEMENT_SET_NO": 999, "REV_AT_EPOCH": 95130, "BSTAR": 0.00082847, "MEAN_MOTION_DOT": 1.257e-05, "MEAN_MOTION_DDOT": 0}, "tle": {"line1": "1 31561U 99025BZC 25343.27529316  .00001257  00000+0  82847-3 0  9999", "line2": "2 31561  98.7171 339.4659 0056360 192.6729 182.0582 14.02762564951307"}}, "geometry": {"type": "Point", "coordinates": [156.1097708283055, -25.94023635655966]}}, {"type": "Feature", "properties": {"norad_id": 31562, "name": "FENGYUN 1C DEB", "group": "fengyun-1c-debris", "lat": 54.510268489286574, "lon": 122.35037313632256, "alt_km": 769.6895717809775, "timestamp": "2025-12-10T05:46:14.106219+00:00", "meta": {"OBJECT_NAME": "FENGYUN 1C DEB", "OBJECT_ID": "1999-025BZD", "EPOCH": "2025-12-07T09:14:15.747072", "MEAN_MOTION": 14.42012956, "ECCENTRICITY": 0.00570563, "INCLINATION": 99.2582, "RA_OF_ASC_NODE": 132.4799, "ARG_OF_PERICENTER": 299.0889, "MEAN_ANOMALY": 60.4592, "EPHEMERIS_TYPE": 0, "CLASSIFICATION_TYPE": "U", "NORAD_CAT_ID": 31562, "ELEMENT_SET_NO": 999, "REV_AT_EPOCH": 96913, "BSTAR": 0.001553202, "MEAN_MOTION_DOT": 5.148e-05, "MEAN_MOTION_DDOT": 0}, "tle": {"line1": "1 31562U 99025BZD 25341.38490448  .00005148  00000+0  15532-2 0  9992", "line2": "2 31562  99.2582 132.4799 0057056 299.0889  60.4592 14.42012956969135"}}, "geometry": {"type": "Point", "coordinates": [122.35037313632256, 54.510268489286574]}}, {"type": "Feature", "properties": {"norad_id": 31563, "name": "FENGYUN 1C DEB", "group": "fengyun-1c-debris", "lat": -58.77692515563944, "lon": -57.563164853363446, "alt_km": 754.9978462987247, "timestamp": "2025-12-10T05:46:14.106229+00:00", "meta": {"OBJECT_NAME": "FENGYUN 1C DEB", "OBJECT_ID": "1999-025BZE", "EPOCH": "2025-12-08T21:32:55.702752", "MEAN_MOTION": 14.65258344, "ECCENTRICITY": 0.0114009, "INCLINATION": 98.9515, "RA_OF_ASC_NODE": 136.0476, "ARG_OF_PERICENTER": 90.6797, "MEAN_ANOMALY": 270.7468, "EPHEMERIS_TYPE": 0, "CLASSIFICATION_TYPE": "U", "NORAD_CAT_ID": 31563, "ELEMENT_SET_NO": 999, "REV_AT_EPOCH": 98488, "BSTAR": 0.00076847, "MEAN_MOTION_DOT": 4.498e-05, "MEAN_MOTION_DDOT": 0}, "tle": {"line1": "1 31563U 99025BZE 25342.89786693  .00004498  00000+0  76847-3 0  9994", "line2": "2 31563  98.9515 136.0476 0114009  90.6797 270.7468 14.65258344984880"}}, "geometry": {"type": "Point", "coordinates": [-57.563164853363446, -58.77692515563944]}}, {"type": "Feature", "properties": {"norad_id": 31565, "name": "FENGYUN 1C DEB", "group": "fengyun-1c-debris", "lat": 55.91922399689894, "lon": -160.51511321211788, "alt_km": 722.748728828391, "timestamp": "2025-12-10T05:46:14.106239+00:00", "meta": {"OBJECT_NAME": "FENGYUN 1C DEB", "OBJECT_ID": "1999-025BZG", "EPOCH": "2025-11-29T09:07:25.735008", "MEAN_MOTION": 14.38541647, "ECCENTRICITY": 0.00553237, "INCLINATION": 100.7173, "RA_OF_ASC_NODE": 202.2097, "ARG_OF_PERICENTER": 58.3475, "MEAN_ANOMALY": 302.3085, "EPHEMERIS_TYPE": 0, "CLASSIFICATION_TYPE": "U", "NORAD_CAT_ID": 31565, "ELEMENT_SET_NO": 999, "REV_AT_EPOCH": 64161, "BSTAR": 0.0030186467, "MEAN_MOTION_DOT": 9.348e-05, "MEAN_MOTION_DDOT": 0}, "tle": {"line1": "1 31565U 99025BZG 25333.38015897  .00009348  00000+0  30186-2 0  9995", "line2": "2 31565 100.7173 202.2097 0055323  58.3475 302.3085 14.38541647641615"}}, "geometry": {"type": "Point", "coordinates": [-160.51511321211788, 55.91922399689894]}}, {"type": "Feature", "properties": {"norad_id": 31566, "name": "FENGYUN 1C DEB", "group": "fengyun-1c-debris", "lat": 54.58775263849304, "lon": -124.14057111446603, "alt_km": 770.3663439975298, "timestamp": "2025-12-10T05:46:14.106249+00:00", "meta": {"OBJECT_NAME": "FENGYUN 1C DEB", "OBJECT_ID": "1999-025BZH", "EPOCH": "2025-12-09T02:36:08.060832", "MEAN_MOTION": 14.37324478, "ECCENTRICITY": 0.00229586, "INCLINATION": 98.9487, "RA_OF_ASC_NODE": 41.8781, "ARG_OF_PERICENTER": 7.2619, "MEAN_ANOMALY": 22.6935, "EPHEMERIS_TYPE": 0, "CLASSIFICATION_TYPE": "U", "NORAD_CAT_ID": 31566, "ELEMENT_SET_NO": 999, "REV_AT_EPOCH": 96339, "BSTAR": 0.0023850189, "MEAN_MOTION_DOT": 7.097e-05, "MEAN_MOTION_DDOT": 0}, "tle": {"line1": "1 31566U 99025BZH 25343.10842663  .00007097  00000+0  23850-2 0  9995", "line2": "2 31566  98.9487  41.8781 0022958   7.2619  22.6935 14.37324478963398"}}, "geometry": {"type": "Point", "coordinates": [-124.14057111446603, 54.58775263849304]}}, {"type": "Feature", "properties": {"norad_id": 31567, "name": "FENGYUN 1C DEB", "group": "fengyun-1c-debris", "lat": 77.45747158677607, "lon": 109.25696899371397, "alt_km": 1011.1848772891117, "timestamp": "2025-12-10T05:46:14.106259+00:00", "meta": {"OBJECT_NAME": "FENGYUN 1C DEB", "OBJECT_ID": "1999-025BZJ", "EPOCH": "2025-12-09T01:44:46.290336", "MEAN_MOTION": 13.92831343, "ECCENTRICITY": 0.01872519, "INCLINATION": 102.3172, "RA_OF_ASC_NODE": 208.5734, "ARG_OF_PERICENTER": 317.4185, "MEAN_ANOMALY": 41.2572, "EPHEMERIS_TYPE": 0, "CLASSIFICATION_TYPE": "U", "NORAD_CAT_ID": 31567, "ELEMENT_SET_NO": 999, "REV_AT_EPOCH": 67358, "BSTAR": 0.0038918062, "MEAN_MOTION_DOT": 5.758e-05, "MEAN_MOTION_DDOT": 0}, "tle": {"line1": "1 31567U 99025BZJ 25343.07275799  .00005758  00000+0  38918-2 0  9995", "line2": "2 31567 102.3172 208.5734 0187251 317.4185  41.2572 13.92831343673589"}}, "geometry": {"type": "Point", "coordinates": [109.25696899371397, 77.45747158677607]}}]}